NORAD_CAT_ID,OBJECT_NAME,OBJECT_TYPE,EPOCH,MEAN_MOTION,ECCENTRICITY,INCLINATION,RA_OF_ASC_NODE,ARG_OF_PERICENTER,MEAN_ANOMALY,BSTAR,MEAN_MOTION_DOT,MEAN_MOTION_DDOT,TLE_LINE0,TLE_LINE1,TLE_LINE2,SEMIMAJOR_AXIS,PERIOD,APOGEE,PERIGEE,DECAYED
52374.0,STARLINK-3762,PAYLOAD,2023-03-26 21:36:31,15.08828876,0.0001216,53.2171,351.9972,85.858,274.2551,0.00050107,7.693e-05,0.0,0 STARLINK-3762,1 52374U 22045AV  23085.90036906  .00007693  00000-0  50107-3 0  9996,2 52374  53.2171 351.9972 0001216  85.8580 274.2551 15.08828876 53065,6917.914,95.438,540.621,538.938,0.0
52374.0,STARLINK-3762,PAYLOAD,2023-03-27 03:58:04,15.08849971,0.0001338,53.2169,350.8086,87.4802,272.6344,0.0022392,0.00035539,0.0,0 STARLINK-3762,1 52374U 22045AV  23086.16532865  .00035539  00000-0  22392-2 0  9994,2 52374  53.2169 350.8086 0001338  87.4802 272.6344 15.08849971 53102,6917.85,95.437,540.641,538.789,0.0
52374.0,STARLINK-3762,PAYLOAD,2023-03-27 21:27:18,15.08853674,0.0001583,53.216,347.5359,88.4898,271.6276,0.00098811,0.00015479,0.0,0 STARLINK-3762,1 52374U 22045AV  23086.89396600  .00015479  00000-0  98811-3 0  9990,2 52374  53.2160 347.5359 0001583  88.4898 271.6276 15.08853674 53217,6917.839,95.437,540.799,538.608,0.0
52374.0,STARLINK-3762,PAYLOAD,2023-03-28 03:48:50,15.08864344,0.0001472,53.2165,346.3462,82.4771,277.6388,0.00088561,0.00013844,0.0,0 STARLINK-3762,1 52374U 22045AV  23087.15892131  .00013844  00000-0  88561-3 0  9995,2 52374  53.2165 346.3462 0001472  82.4771 277.6388 15.08864344 53255,6917.806,95.436,540.689,538.653,0.0
52374.0,STARLINK-3762,PAYLOAD,2023-03-28 21:18:04,15.08852655,8.5e-05,53.2164,343.077,83.6334,276.4755,0.00077408,0.00012057,0.0,0 STARLINK-3762,1 52374U 22045AV  23087.88755751  .00012057  00000-0  77408-3 0  9994,2 52374  53.2164 343.0770 0000850  83.6334 276.4755 15.08852655 53366,6917.842,95.437,540.295,539.119,0.0
52374.0,STARLINK-3762,PAYLOAD,2023-03-29 00:28:51,15.08861384,0.0001255,53.2155,342.4808,100.8533,259.26,0.0010272,0.00016107,0.0,0 STARLINK-3762,1 52374U 22045AV  23088.02003537  .00016107  00000-0  10272-2 0  9994,2 52374  53.2155 342.4808 0001255 100.8533 259.2600 15.08861384 53383,6917.815,95.436,540.548,538.812,0.0
52374.0,STARLINK-3762,PAYLOAD,2023-03-29 02:04:14,15.08869812,0.0001227,53.2154,342.1817,99.5152,260.5978,0.0010428,0.00016361,0.0,0 STARLINK-3762,1 52374U 22045AV  23088.08627329  .00016361  00000-0  10428-2 0  9996,2 52374  53.2154 342.1817 0001227  99.5152 260.5978 15.08869812 53397,6917.789,95.436,540.503,538.805,0.0
52374.0,STARLINK-3762,PAYLOAD,2023-03-29 22:44:15,15.08841945,0.0001215,53.2154,338.318,95.0748,265.0382,0.00102,0.00015983,0.0,0 STARLINK-3762,1 52374U 22045AV  23088.94740201  .00015983  00000-0  10200-2 0  9993,2 52374  53.2154 338.3180 0001215  95.0748 265.0382 15.08841945 53527,6917.874,95.437,540.58,538.899,0.0
52374.0,STARLINK-3762,PAYLOAD,2023-03-30 09:51:57,15.08839377,0.000144,53.215,336.2398,85.2963,274.8193,0.00073329,0.00011401,0.0,0 STARLINK-3762,1 52374U 22045AV  23089.41108523  .00011401  00000-0  73329-3 0  9994,2 52374  53.2150 336.2398 0001440  85.2963 274.8193 15.08839377 53592,6917.882,95.438,540.743,538.751,0.0
52374.0,STARLINK-3762,PAYLOAD,2023-03-31 16:04:17,15.08845362,0.000137,53.2169,330.5896,86.4965,273.6184,0.00072377,0.00011251,0.0,0 STARLINK-3762,1 52374U 22045AV  23090.66964813  .00011251  00000-0  72377-3 0  9990,2 52374  53.2169 330.5896 0001370  86.4965 273.6184 15.08845362 53788,6917.864,95.437,540.677,538.781,0.0
52374.0,STARLINK-3762,PAYLOAD,2023-04-01 01:36:36,15.08853601,0.0001137,53.2167,328.8033,85.0648,275.0474,0.00093464,0.00014624,0.0,0 STARLINK-3762,1 52374U 22045AV  23091.06708682  .00014624  00000-0  93464-3 0  9992,2 52374  53.2167 328.8033 0001137  85.0648 275.0474 15.08853601 53843,6917.839,95.437,540.49,538.917,0.0
52374.0,STARLINK-3762,PAYLOAD,2023-04-01 15:55:05,15.08834856,0.0001322,53.2154,326.1251,86.3447,273.7696,0.00055941,8.625e-05,0.0,0 STARLINK-3762,1 52374U 22045AV  23091.66325578  .00008625  00000-0  55941-3 0  9999,2 52374  53.2154 326.1251 0001322  86.3447 273.7696 15.08834856 53931,6917.896,95.438,540.676,538.847,0.0
52374.0,STARLINK-3762,PAYLOAD,2023-04-01 22:16:37,15.0883743,0.0001189,53.2169,324.9375,63.7197,296.3917,0.00046193,7.071e-05,0.0,0 STARLINK-3762,1 52374U 22045AV  23091.92821706  .00007071  00000-0  46193-3 0  9995,2 52374  53.2169 324.9375 0001189  63.7197 296.3917 15.08837430 53974,6917.888,95.438,540.576,538.931,0.0
52374.0,STARLINK-3762,PAYLOAD,2023-04-02 14:10:29,15.08853763,0.0001254,53.2173,321.9651,61.7877,298.3241,0.00096832,0.00015162,0.0,0 STARLINK-3762,1 52374U 22045AV  23092.59061596  .00015162  00000-0  96832-3 0  9997,2 52374  53.2173 321.9651 0001254  61.7877 298.3241 15.08853763 54070,6917.838,95.437,540.571,538.836,0.0
52374.0,STARLINK-3762,PAYLOAD,2023-04-02 20:32:01,15.08865134,0.0001221,53.2165,320.7758,61.1364,298.975,0.0010166,0.00015939,0.0,0 STARLINK-3762,1 52374U 22045AV  23092.85557111  .00015939  00000-0  10166-2 0  9996,2 52374  53.2165 320.7758 0001221  61.1364 298.9750 15.08865134 54116,6917.804,95.436,540.513,538.824,0.0
52374.0,STARLINK-3762,PAYLOAD,2023-04-02 22:07:24,15.08870369,0.0001221,53.2164,320.4776,63.2949,296.8168,0.0011169,0.00017547,0.0,0 STARLINK-3762,1 52374U 22045AV  23092.92180907  .00017547  00000-0  11169-2 0  9990,2 52374  53.2164 320.4776 0001221  63.2949 296.8168 15.08870369 54121,6917.788,95.436,540.497,538.808,0.0
52374.0,STARLINK-3762,PAYLOAD,2023-04-03 14:01:15,15.08858474,0.0002648,53.2154,317.5041,64.3362,295.7904,0.00041004,6.247e-05,0.0,0 STARLINK-3762,1 52374U 22045AV  23093.58420933  .00006247  00000-0  41004-3 0  9996,2 52374  53.2154 317.5041 0002648  64.3362 295.7904 15.08858474 54227,6917.824,95.436,541.521,537.857,0.0
52374.0,STARLINK-3762,PAYLOAD,2023-04-03 15:36:38,15.08857314,0.0002222,53.2147,317.2061,65.0398,295.0825,0.00036623,5.548e-05,0.0,0 STARLINK-3762,1 52374U 22045AV  23093.65044815  .00005548  00000-0  36623-3 0  9999,2 52374  53.2147 317.2061 0002222  65.0398 295.0825 15.08857314 54231,6917.827,95.436,541.23,538.155,0.0
52374.0,STARLINK-3762,PAYLOAD,2023-04-03 21:58:11,15.08852046,0.0001224,53.2141,316.0158,79.9598,280.1532,0.00028553,4.261e-05,0.0,0 STARLINK-3762,1 52374U 22045AV  23093.91540566  .00004261  00000-0  28553-3 0  9996,2 52374  53.2141 316.0158 0001224  79.9598 280.1532 15.08852046 54277,6917.844,95.437,540.555,538.862,0.0
52374.0,STARLINK-3762,PAYLOAD,2023-04-03 23:33:34,15.08851075,0.0001026,53.2155,315.7197,81.6234,278.4875,0.00034538,5.215e-05,0.0,0 STARLINK-3762,1 52374U 22045AV  23093.98164587  .00005215  00000-0  34538-3 0  9998,2 52374  53.2155 315.7197 0001026  81.6234 278.4875 15.08851075 54280,6917.847,95.437,540.421,539.002,0.0
52374.0,STARLINK-3762,PAYLOAD,2023-04-04 21:48:58,15.08842823,0.0001123,53.2148,311.5564,78.7432,281.3687,0.00064787,0.00010039,0.0,0 STARLINK-3762,1 52374U 22045AV  23094.90900973  .00010039  00000-0  64787-3 0  9997,2 52374  53.2148 311.5564 0001123  78.7432 281.3687 15.08842823 54420,6917.872,95.437,540.514,538.96,0.0
52374.0,STARLINK-3762,PAYLOAD,2023-04-05 00:59:44,15.08843158,0.0001185,53.2147,310.9617,80.197,279.9156,0.00027236,4.05e-05,0.0,0 STARLINK-3762,1 52374U 22045AV  23095.04148858  .00004050  00000-0  27236-3 0  9993,2 52374  53.2147 310.9617 0001185  80.1970 279.9156 15.08843158 54441,6917.871,95.437,540.556,538.916,0.0
52374.0,STARLINK-3762,PAYLOAD,2023-04-05 20:04:22,15.08834548,0.000119,53.2143,307.3921,82.7547,277.358,1.6806e-05,-2e-07,0.0,0 STARLINK-3762,1 52374U 22045AV  23095.83637374 -.00000020  00000-0  16806-4 0  9992,2 52374  53.2143 307.3921 0001190  82.7547 277.3580 15.08834548 54568,6917.897,95.438,540.585,538.939,0.0
52374.0,STARLINK-3762,PAYLOAD,2023-04-05 21:39:45,15.08836628,0.0001228,53.2149,307.0944,79.6598,280.4533,3.0261e-05,1.94e-06,0.0,0 STARLINK-3762,1 52374U 22045AV  23095.90261313  .00000194  00000-0  30261-4 0  9998,2 52374  53.2149 307.0944 0001228  79.6598 280.4533 15.08836628 54574,6917.891,95.438,540.605,538.906,0.0
52374.0,STARLINK-3762,PAYLOAD,2023-04-06 00:50:31,15.08840077,0.000111,53.2145,306.4994,83.2973,276.8145,9.2491e-05,1.184e-05,0.0,0 STARLINK-3762,1 52374U 22045AV  23096.03509195  .00001184  00000-0  92491-4 0  9999,2 52374  53.2145 306.4994 0001110  83.2973 276.8145 15.08840077 54599,6917.88,95.438,540.513,538.977,0.0
52374.0,STARLINK-3762,PAYLOAD,2023-04-07 13:24:24,15.08834222,0.0001092,53.2144,299.6593,91.8555,268.2562,7.8616e-05,9.63e-06,0.0,0 STARLINK-3762,1 52374U 22045AV  23097.55861855  .00000963  00000-0  78616-4 0  9998,2 52374  53.2144 299.6593 0001092  91.8555 268.2562 15.08834222 54825,6917.898,95.438,540.518,539.008,0.0
52374.0,STARLINK-3762,PAYLOAD,2023-04-08 00:32:06,15.08844857,0.0001049,53.2158,297.5787,79.5698,280.5413,8.0835e-05,9.99e-06,0.0,0 STARLINK-3762,1 52374U 22045AV  23098.02229261  .00000999  00000-0  80835-4 0  9995,2 52374  53.2158 297.5787 0001049  79.5698 280.5413 15.08844857 54899,6917.866,95.437,540.456,539.005,0.0
52374.0,STARLINK-3762,PAYLOAD,2023-04-08 13:15:11,15.08837536,0.000106,53.216,295.2001,86.7827,273.3286,6.2047e-05,7e-06,0.0,0 STARLINK-3762,1 52374U 22045AV  23098.55221799  .00000700  00000-0  62047-4 0  9996,2 52374  53.2160 295.2001 0001060  86.7827 273.3286 15.08837536 54976,6917.888,95.438,540.486,539.02,0.0
52374.0,STARLINK-3762,PAYLOAD,2023-04-09 03:33:40,15.08827387,0.0001348,53.2157,292.5236,67.4262,292.6873,6.7995e-05,7.94e-06,0.0,0 STARLINK-3762,1 52374U 22045AV  23099.14838614  .00000794  00000-0  67995-4 0  9992,2 52374  53.2157 292.5236 0001348  67.4262 292.6873 15.08827387 55060,6917.919,95.438,540.716,538.851,0.0
52374.0,STARLINK-3762,PAYLOAD,2023-04-09 13:05:58,15.08834904,0.00011,53.215,290.7391,78.5749,281.5367,9.1152e-05,1.163e-05,0.0,0 STARLINK-3762,1 52374U 22045AV  23099.54582141  .00001163  00000-0  91152-4 0  9990,2 52374  53.2150 290.7391 0001100  78.5749 281.5367 15.08834904 55129,6917.896,95.438,540.522,539.0,0.0
